[{"OBJECT_NAME":"XINGYUN-2 01","OBJECT_ID":"2020-028A","EPOCH":"2026-03-09T23:27:57.512736","MEAN_MOTION":15.11323975,"ECCENTRICITY":0.00090563,"INCLINATION":97.4853,"RA_OF_ASC_NODE":63.3977,"ARG_OF_PERICENTER":174.572,"MEAN_ANOMALY":185.561,"EPHEMERIS_TYPE":0,"CLASSIFICATION_TYPE":"U","NORAD_CAT_ID":45602,"ELEMENT_SET_NO":999,"REV_AT_EPOCH":31985,"BSTAR":0.000253969,"MEAN_MOTION_DOT":4.22e-5,"MEAN_MOTION_DDOT":0},{"OBJECT_NAME":"STARLINK-3271","OBJECT_ID":"2021-125M","EPOCH":"2026-03-09T18:00:52.490592","MEAN_MOTION":15.08835168,"ECCENTRICITY":0.00012555,"INCLINATION":53.2161,"RA_OF_ASC_NODE":258.8616,"ARG_OF_PERICENTER":85.6499,"MEAN_ANOMALY":274.4636,"EPHEMERIS_TYPE":0,"CLASSIFICATION_TYPE":"U","NORAD_CAT_ID":50167,"ELEMENT_SET_NO":999,"REV_AT_EPOCH":23646,"BSTAR":-6.950945e-6,"MEAN_MOTION_DOT":-3.98e-6,"MEAN_MOTION_DDOT":0}]
